NORAD_CAT_ID,OBJECT_NAME,OBJECT_TYPE,EPOCH,MEAN_MOTION,ECCENTRICITY,INCLINATION,RA_OF_ASC_NODE,ARG_OF_PERICENTER,MEAN_ANOMALY,BSTAR,MEAN_MOTION_DOT,MEAN_MOTION_DDOT,TLE_LINE0,TLE_LINE1,TLE_LINE2,SEMIMAJOR_AXIS,PERIOD,APOGEE,PERIGEE,DECAYED
49455.0,STARLINK-3145,PAYLOAD,2022-05-15 06:00:00,15.08836866,0.0002039,53.218,358.9923,34.4588,11.5837,-0.0015238,-0.00024456,0.0,0 STARLINK-3145,1 49455U 21104AZ  22135.25001157 -.00024456  00000-0 -15238-2 0  9993,2 49455  53.2180 358.9923 0002039  34.4588  11.5837 15.08836866 29347,6917.89,95.438,541.1659999999998,538.344,0.0
49455.0,STARLINK-3145,PAYLOAD,2022-05-15 14:00:01,15.08828378,0.0001895,53.2182,357.4948,39.261,18.4281,0.001613,0.00025468,0.0,0 STARLINK-3145,1 49455U 21104AZ  22135.58335648  .00025468  00000-0  16130-2 0  9998,2 49455  53.2182 357.4948 0001895  39.2610  18.4281 15.08828378  1302,6917.916,95.438,541.092,538.47,0.0
49455.0,STARLINK-3145,PAYLOAD,2022-05-15 22:00:00,15.08830064,0.0002135,53.2181,356.0003,37.8012,31.4239,-0.00056536,-9.272e-05,0.0,0 STARLINK-3145,1 49455U 21104AZ  22135.91667824 -.00009272  00000-0 -56536-3 0  9991,2 49455  53.2181 356.0003 0002135  37.8012  31.4239 15.08830064 29444,6917.911,95.438,541.253,538.299,0.0
49455.0,STARLINK-3145,PAYLOAD,2022-05-16 14:00:01,15.08838696,0.0002008,53.2179,353.0057,44.706,47.6855,-0.00037495,-6.25e-05,0.0,0 STARLINK-3145,1 49455U 21104AZ  22136.58334491 -.00006250  00000-0 -37495-3 0  9992,2 49455  53.2179 353.0057 0002008  44.7060  47.6855 15.08838696  1303,6917.884,95.438,541.138,538.36,0.0
49455.0,STARLINK-3145,PAYLOAD,2022-05-16 22:00:00,15.08825476,0.0002216,53.2176,351.5112,41.7414,62.2449,0.00076051,0.00011831,0.0,0 STARLINK-3145,1 49455U 21104AZ  22136.91667824  .00011831  00000-0  76051-3 0  9998,2 49455  53.2176 351.5112 0002216  41.7414  62.2449 15.08825476 29591,6917.925,95.438,541.323,538.257,0.0
49455.0,STARLINK-3145,PAYLOAD,2022-05-17 14:00:01,15.08824816,0.0001964,53.2174,348.5164,44.9121,82.3151,0.0020174,0.00031952,0.0,0 STARLINK-3145,1 49455U 21104AZ  22137.58335648  .00031952  00000-0  20174-2 0  9998,2 49455  53.2174 348.5164 0001964  44.9121  82.3151 15.08824816  1300,6917.927,95.439,541.15,538.433,0.0
49455.0,STARLINK-3145,PAYLOAD,2022-05-17 22:00:01,15.08847341,0.0002131,53.2172,347.0219,39.776,99.0452,-0.00061168,-0.00010012,0.0,0 STARLINK-3145,1 49455U 21104AZ  22137.91668981 -.00010012  00000-0 -61168-3 0  9999,2 49455  53.2172 347.0219 0002131  39.7760  99.0452 15.08847341  1308,6917.858,95.437,541.197,538.249,0.0
49455.0,STARLINK-3145,PAYLOAD,2022-05-18 06:00:00,15.08846713,0.0002011,53.2168,345.5243,39.2463,111.1177,-0.00097935,-0.00015844,0.0,0 STARLINK-3145,1 49455U 21104AZ  22138.25001157 -.00015844  00000-0 -97935-3 0  9992,2 49455  53.2168 345.5243 0002011  39.2463 111.1177 15.08846713 29790,6917.86,95.437,541.116,538.3340000000002,0.0
49455.0,STARLINK-3145,PAYLOAD,2022-05-18 14:00:01,15.08858927,0.0001962,53.2171,344.0272,44.5111,117.4442,-0.0015051,-0.00024175,0.0,0 STARLINK-3145,1 49455U 21104AZ  22138.58334491 -.00024175  00000-0 -15051-2 0  9993,2 49455  53.2171 344.0272 0001962  44.5111 117.4442 15.08858927  1304,6917.823,95.436,541.045,538.33,0.0
49455.0,STARLINK-3145,PAYLOAD,2022-05-18 22:00:00,15.08831412,0.0002178,53.2169,342.5326,39.9785,133.5831,-0.00070746,-0.00011528,0.0,0 STARLINK-3145,1 49455U 21104AZ  22138.91667824 -.00011528  00000-0 -70746-3 0  9990,2 49455  53.2169 342.5326 0002178  39.9785 133.5831 15.08831412  1300,6917.906999999997,95.438,541.278,538.265,0.0
49455.0,STARLINK-3145,PAYLOAD,2022-05-19 06:00:00,15.08831825,0.0002038,53.2167,341.0349,39.0551,146.08700000000005,-0.00071764,-0.00011689,0.0,0 STARLINK-3145,1 49455U 21104AZ  22139.25001157 -.00011689  00000-0 -71764-3 0  9998,2 49455  53.2167 341.0349 0002038  39.0551 146.0870 15.08831825 29944,6917.905,95.438,541.18,538.361,0.0
49455.0,STARLINK-3145,PAYLOAD,2022-05-19 14:00:01,15.08839011,0.0001995,53.2171,339.5379,43.151,153.6277,0.00097215,0.00015217,0.0,0 STARLINK-3145,1 49455U 21104AZ  22139.58335648  .00015217  00000-0  97215-3 0  9997,2 49455  53.2171 339.5379 0001995  43.1510 153.6277 15.08839011  1306,6917.8830000000025,95.438,541.129,538.368,0.0
49455.0,STARLINK-3145,PAYLOAD,2022-05-19 22:00:00,15.0883161,0.0002172,53.2172,338.0434,36.5046,171.8227,0.00064275,9.954e-05,0.0,0 STARLINK-3145,1 49455U 21104AZ  22139.91667824  .00009954  00000-0  64275-3 0  9999,2 49455  53.2172 338.0434 0002172  36.5046 171.8227 15.08831610 30048,6917.906,95.438,541.274,538.268,0.0
49455.0,STARLINK-3145,PAYLOAD,2022-05-20 14:00:01,15.08694373,0.0002118,53.2172,335.052,38.605,192.9439,0.011754,0.00191135,0.0,0 STARLINK-3145,1 49455U 21104AZ  22140.58334491  .00191135  00000-0  11754-1 0  9990,2 49455  53.2172 335.0520 0002118  38.6050 192.9439 15.08694373 30142,6918.326,95.447,541.656,538.725,0.0
49455.0,STARLINK-3145,PAYLOAD,2022-05-20 22:00:00,15.08836085,0.0002264,53.2174,333.5593,34.5287,208.5167,0.00010012,1.305e-05,0.0,0 STARLINK-3145,1 49455U 21104AZ  22140.91667824  .00001305  00000-0  10012-3 0  9993,2 49455  53.2174 333.5593 0002264  34.5287 208.5167 15.08836085 30191,6917.892,95.438,541.3240000000002,538.191,0.0
49455.0,STARLINK-3145,PAYLOAD,2022-05-21 06:00:00,15.08852387,0.0002003,53.2177,332.0564,32.0924,222.6091,-0.0029552,-0.0004703,0.0,0 STARLINK-3145,1 49455U 21104AZ  22141.25001157 -.00047030  00000-0 -29552-2 0  9997,2 49455  53.2177 332.0564 0002003  32.0924 222.6091 15.08852387 30240,6917.843000000003,95.437,541.0930000000002,538.322,0.0
49455.0,STARLINK-3145,PAYLOAD,2022-05-21 14:00:01,15.08826984,0.0002003,53.218,330.5598,37.0544,229.298,0.00097613,0.00015276,0.0,0 STARLINK-3145,1 49455U 21104AZ  22141.58335648  .00015276  00000-0  97613-3 0  9997,2 49455  53.2180 330.5598 0002003  37.0544 229.2980 15.08826984  1306,6917.92,95.438,541.1709999999998,538.4,0.0
49455.0,STARLINK-3145,PAYLOAD,2022-05-21 22:00:00,15.08825271,0.0002221,53.218,329.0652,31.7734,246.1152,0.00096412,0.00015083,0.0,0 STARLINK-3145,1 49455U 21104AZ  22141.91667824  .00015083  00000-0  96412-3 0  9990,2 49455  53.2180 329.0652 0002221  31.7734 246.1152 15.08825271 30347,6917.925,95.438,541.327,538.254,0.0
49455.0,STARLINK-3145,PAYLOAD,2022-05-22 14:00:01,15.08854915,0.0002025,53.2183,326.0711,35.9668,265.0827,-0.0023225,-0.00037077,0.0,0 STARLINK-3145,1 49455U 21104AZ  22142.58334491 -.00037077  00000-0 -23225-2 0  9995,2 49455  53.2183 326.0711 0002025  35.9668 265.0827 15.08854915  1307,6917.835,95.437,541.101,538.299,0.0
49455.0,STARLINK-3145,PAYLOAD,2022-05-22 22:00:01,15.08816056,0.0002286,53.2181,324.5764,33.4253,279.2859,0.0032231,0.00051349,0.0,0 STARLINK-3145,1 49455U 21104AZ  22142.91668981  .00051349  00000-0  32231-2 0  9999,2 49455  53.2181 324.5764 0002286  33.4253 279.2859 15.08816056 30496,6917.954000000002,95.439,541.4,538.237,0.0
49455.0,STARLINK-3145,PAYLOAD,2022-05-23 06:00:00,15.08836691,0.0002086,53.218,323.0785,34.2303,290.007,-0.000816,-0.00013251,0.0,0 STARLINK-3145,1 49455U 21104AZ  22143.25001157 -.00013251  00000-0 -81600-3 0  9990,2 49455  53.2180 323.0785 0002086  34.2303 290.0070 15.08836691 30544,6917.891,95.438,541.1990000000002,538.312,0.0
49455.0,STARLINK-3145,PAYLOAD,2022-05-23 14:00:01,15.08854763,0.0002068,53.2181,321.5824,36.3483,299.4627,-0.0031001,-0.0004931,0.0,0 STARLINK-3145,1 49455U 21104AZ  22143.58334491 -.00049310  00000-0 -31001-2 0  9990,2 49455  53.2181 321.5824 0002068  36.3483 299.4627 15.08854763  1307,6917.835,95.437,541.131,538.27,0.0
49455.0,STARLINK-3145,PAYLOAD,2022-05-23 22:00:01,15.08811955,0.0002269,53.2177,320.0875,33.0501,314.4166,0.00058729,9.064e-05,0.0,0 STARLINK-3145,1 49455U 21104AZ  22143.91668981  .00009064  00000-0  58729-3 0  9998,2 49455  53.2177 320.0875 0002269  33.0501 314.4166 15.08811955  1302,6917.965999999999,95.439,541.401,538.261,0.0
49455.0,STARLINK-3145,PAYLOAD,2022-05-24 14:00:01,15.08826035,0.0002039,53.2176,317.0938,35.4712,335.0417,-0.00059365,-9.72e-05,0.0,0 STARLINK-3145,1 49455U 21104AZ  22144.58334491 -.00009720  00000-0 -59365-3 0  9996,2 49455  53.2176 317.0938 0002039  35.4712 335.0417 15.08826035 30745,6917.9230000000025,95.438,541.1990000000002,538.378,0.0
49455.0,STARLINK-3145,PAYLOAD,2022-05-24 22:00:00,15.08800875,0.0002236,53.2171,315.5988,32.1184,349.9735,0.0035643,0.00056835,0.0,0 STARLINK-3145,1 49455U 21104AZ  22144.91667824  .00056835  00000-0  35643-2 0  9991,2 49455  53.2171 315.5988 0002236  32.1184 349.9735 15.08800875  1305,6918.0,95.44,541.4119999999998,538.318,0.0
49455.0,STARLINK-3145,PAYLOAD,2022-05-25 06:00:00,15.08824796,0.0002042,53.2168,314.1007,35.0142,358.6575,0.0018905,0.00029915,0.0,0 STARLINK-3145,1 49455U 21104AZ  22145.25001157  .00029915  00000-0  18905-2 0  9991,2 49455  53.2168 314.1007 0002042  35.0142 358.6575 15.08824796 30858,6917.927,95.439,541.205,538.379,0.0
49455.0,STARLINK-3145,PAYLOAD,2022-05-25 14:00:01,15.08865228,0.0002085,53.2169,312.6049,36.1623,9.0922,-0.00088684,-0.00014385,0.0,0 STARLINK-3145,1 49455U 21104AZ  22145.58334491 -.00014385  00000-0 -88684-3 0  9996,2 49455  53.2169 312.6049 0002085  36.1623   9.0922 15.08865228  1307,6917.803000000001,95.436,541.111,538.226,0.0
49455.0,STARLINK-3145,PAYLOAD,2022-05-25 18:34:12,15.08827323,0.0002232,53.2185,311.7488,39.3865,320.7289,0.00027193,4.041e-05,0.0,0 STARLINK-3145,1 49455U 21104AZ  22145.77375008  .00004041  00000-0  27193-3 0  9990,2 49455  53.2185 311.7488 0002232  39.3865 320.7289 15.08827323 29852,6917.919,95.438,541.328,538.24,0.0
49455.0,STARLINK-3145,PAYLOAD,2022-05-26 06:00:00,15.08836717,0.0002032,53.2164,309.6113,33.2425,35.2558,0.0019507,0.00030891,0.0,0 STARLINK-3145,1 49455U 21104AZ  22146.25001157  .00030891  00000-0  19507-2 0  9996,2 49455  53.2164 309.6113 0002032  33.2425  35.2558 15.08836717 31007,6917.89,95.438,541.161,538.35,0.0
